{
    "links": {
        "self": "http://www.neowsapp.com/rest/v1/neo/3799724?api_key=iIulBulltgU6a56xZRHN4H3l9WmuAYTsLGpBGhQ2"
    },
    "id": "3799724",
    "neo_reference_id": "3799724",
    "name": "(2018 DL1)",
    "designation": "2018 DL1",
    "nasa_jpl_url": "http://ssd.jpl.nasa.gov/sbdb.cgi?sstr=3799724",
    "absolute_magnitude_h": 24.4,
    "estimated_diameter": {
        "kilometers": {
            "estimated_diameter_min": 0.0350392641,
            "estimated_diameter_max": 0.0783501764
        },
        "meters": {
            "estimated_diameter_min": 35.0392641108,
            "estimated_diameter_max": 78.3501764334
        },
        "miles": {
            "estimated_diameter_min": 0.0217723826,
            "estimated_diameter_max": 0.0486845275
        },
        "feet": {
            "estimated_diameter_min": 114.9582192654,
            "estimated_diameter_max": 257.0543928497
        }
    },
    "is_potentially_hazardous_asteroid": false,
    "close_approach_data": [
        {
            "close_approach_date": "2018-02-09",
            "close_approach_date_full": "2018-Feb-09 19:05",
            "epoch_date_close_approach": 1518203100000,
            "relative_velocity": {
                "kilometers_per_second": "11.5206508446",
                "kilometers_per_hour": "41474.3430405809",
                "miles_per_hour": "25770.5438742987"
            },
            "miss_distance": {
                "astronomical": "0.0515579446",
                "lunar": "20.0560404494",
                "kilometers": "7712958.693738002",
                "miles": "4792610.2959963476"
            },
            "orbiting_body": "Earth"
        }
    ],
    "orbital_data": {
        "orbit_id": "1",
        "orbit_determination_date": "2018-02-25 09:12:08",
        "first_observation_date": "2018-02-23",
        "last_observation_date": "2018-02-25",
        "data_arc_in_days": 2,
        "observations_used": 29,
        "orbit_uncertainty": "8",
        "minimum_orbit_intersection": ".0492057",
        "jupiter_tisserand_invariant": "3.145",
        "epoch_osculation": "2458173.5",
        "eccentricity": ".6261072082259582",
        "semi_major_axis": "2.503253321696084",
        "inclination": "9.639702679950705",
        "ascending_node_longitude": "156.8963630178331",
        "orbital_period": "1446.623875553028",
        "perihelion_distance": ".9359483729665923",
        "perihelion_argument": "308.8844527192663",
        "aphelion_distance": "4.070558270425575",
        "perihelion_time": "2458132.378462073326",
        "mean_anomaly": "10.23331213024763",
        "mean_motion": ".2488552871853965",
        "equinox": "J2000",
        "orbit_class": {
            "orbit_class_type": "APO",
            "orbit_class_description": "Near-Earth asteroid orbits which cross the Earth’s orbit similar to that of 1862 Apollo",
            "orbit_class_range": "a (semi-major axis) > 1.0 AU; q (perihelion) < 1.017 AU"
        }
    },
    "is_sentry_object": false
}